SL-16 R/B               
1 20625U 90046B   17345.90583238 -.00000052  00000-0 -23575-5 0  9998
2 20625  70.9972 136.1417 0015235 205.2478 154.7902 14.14620112422714
